
1 41405U 00055KJ  17025.98689115  .00001023  00000-0  59621-3 0  9998
2 41405  98.9160  99.0203 0019577 115.2670 245.0532 14.10686192 48284
1 41406U 00055KK  17025.16528296 +.00000647 +00000-0 +31080-3 0  9991
2 41406 098.9041 106.0584 0044401 317.1182 042.6536 14.21918828048415
1 41407U 00055KL  17026.18422683  .00005416  00000-0  23689-2 0  9992
2 41407  99.0228 109.3941 0012075 204.0327 156.0288 14.24156468 48809
1 41408U 00055KM  17026.41598610  .00000572  00000-0  32214-3 0  9996
2 41408  98.8849 101.2465 0012816  19.2978 340.8678 14.14393785 48764
1 41409U 00055KN  17025.97097006  .00000721  00000-0  38701-3 0  9993
2 41409  98.8173  98.4700 0037484  45.1739 315.2471 14.15737069 48388
1 41410U 00055KP  17024.12106722  .00000708  00000-0  45455-3 0  9996
2 41410  98.9008  93.9894 0028301 188.6245 171.4440 14.06252533 48224
1 41411U 00055KQ  17024.65368695 +.00000582 +00000-0 +31581-3 0  9999
2 41411 098.8926 101.1585 0017924 329.4841 030.5288 14.16248103049201
1 41412U 00055KR  17026.43624476  .00000683  00000-0  43135-3 0  9990
2 41412  98.7900  91.7008 0031133 140.0875 220.2591 14.07154720 48091
1 41413U 00055KS  17024.42965245 +.00000698 +00000-0 +41923-3 0  9999
2 41413 098.8692 095.4670 0025909 221.6629 138.2568 14.10027586048752
1 41414U 00055KT  17024.17535647  .00001471  00000-0  65791-3 0  9990
2 41414  98.9689 107.9893 0067420   5.0040 355.1797 14.22998423 48362
1 41415U 00055KU  17025.00863980  .00000593  00000-0  33751-3 0  9993
2 41415  98.8863  99.3491 0005319 314.3182  45.7553 14.13689681 47326
1 41416U 00055KV  17026.44584295  .00000660  00000-0  35818-3 0  9993
2 41416  98.8777 101.7279 0037438 255.3095 104.3927 14.15510759 47594
1 41417U 00055KW  17023.63229520  .00000611  00000-0  35464-3 0  9992
2 41417  98.9044  97.8697 0023832  75.1887 285.1922 14.12369184 47091
1 41418U 00055KX  17026.18860317  .00000612  00000-0  30251-3 0  9991
2 41418  98.9683 109.2526 0038563 329.0873  30.8033 14.20835854 47597
1 41419U 00055KY  17023.98385577  .00001182  00000-0  69795-3 0  9995
2 41419  98.9018  95.5833 0024989 204.6111 155.3868 14.09603541 47264
1 41420U 00055KZ  17025.44519720 +.00001308 +00000-0 +57438-3 0  9990
2 41420 098.9377 109.2419 0052749 308.8746 050.7732 14.24642334051389
1 41421U 00055LA  17025.43567484  .00001147  00000-0  53863-3 0  9999
2 41421  98.9188 106.3179 0052106 357.1877   2.8999 14.21384311 47765
1 41422U 00055LB  17026.41560306  .00000631  00000-0  38113-3 0  9993
2 41422  98.9160  99.6736 0018990 223.5149 136.4523 14.10186302 49329
1 41423U 00055LC  17025.14970990  .00000859  00000-0  46323-3 0  9991
2 41423  98.8502  99.0157 0013289 342.7842  17.2879 14.15379813 50373
1 41424U 00055LD  17026.00212238  .00000547  00000-0  30304-3 0  9998
2 41424  98.9380 103.8736 0029962 280.5276  79.2523 14.15288866 47581
1 41425U 00055LE  17022.68739928  .00000724  00000-0  32821-3 0  9992
2 41425  98.9317 106.4713 0054306 338.5609  21.3294 14.24349785 49763
1 41426U 00055LF  17024.65267357  .00001021  00000-0  59966-3 0  9994
2 41426  98.9554  99.0361 0025375 226.2645 133.6424 14.10219047 48842
1 41427U 00055LG  17025.02533912 +.00000857 +00000-0 +55506-3 0  9992
2 41427 098.9691 096.2907 0044003 156.2104 204.1110 14.04975013046839
1 41428U 00055LH  17026.03861391  .00000555  00000-0  31230-3 0  9993
2 41428  98.9075 101.9330 0018739 278.2628  81.6420 14.14493074 47491
1 41429U 00055LJ  17025.14822466 +.00000485 +00000-0 +28720-3 0  9997
2 41429 098.9039 099.3387 0020884 072.6595 287.6859 14.12248630047305
1 41430U 00055LK  17026.17824126  .00000579  00000-0  28834-3 0  9998
2 41430  98.9377 107.4729 0048229   2.2607 357.8778 14.20388755 52699
1 41431U 00055LL  17024.44980224 +.00001594 +00000-0 +66912-3 0  9996
2 41431 098.9682 110.7020 0056126 327.6747 032.0997 14.26536596051883
1 41432U 00055LM  17025.46330354 +.00003057 +00000-0 +99404-3 0  9991
2 41432 098.8775 113.4419 0113858 264.4792 094.3397 14.35941782049544
1 41433U 00055LN  17025.67164889 +.00001223 +00000-0 +60645-3 0  9991
2 41433 099.0069 108.5748 0031054 302.2715 057.5453 14.18909416051712
1 41434U 16021A   17025.91537242 -.00000119 +00000-0 +10000-3 0  9990
2 41434 055.3476 073.9694 0028048 183.8532 291.3182 01.00261043003105
1 41435U 16021B   17026.05024417  .00000750  00000-0  18156-3 0  9992
2 41435  55.1710   5.3352 7249726 215.1877  62.8943  2.31901196  7005
1 41439U 16012H   17026.10151128  .00002630  00000-0  19145-3 0  9990
2 41439  31.0090 292.5247 0012233  75.2567 284.9424 15.01585677 45670
1 41440U 16012J   17026.09007839  .00006709  00000-0  43067-3 0  9990
2 41440  31.0111 282.6957 0015698  81.8038 278.4379 15.06960272 46051
1 41441U 16012K   17026.06743945  .00005439  00000-0  28759-3 0  9993
2 41441  30.9713 262.8555 0023935 269.2678  90.5218 15.13630263 46245
1 41442U 16012L   17026.09953656  .00001023  00000-0  73979-4 0  9999
2 41442  31.0098 295.4654 0013725  71.3234 288.8890 14.99784500 51636
1 41444U 16012N   17025.85374775  .00005161  00000-0  37502-3 0  9991
2 41444  31.0054 294.2870 0011420  93.5792 266.6150 15.02284253 45644
1 41445U 16012P   17025.79190737  .00005769  00000-0  41040-3 0  9995
2 41445  31.0047 292.7441 0011584  92.8583 267.3379 15.03139900 45634
1 41446U 16012Q   17025.83274609  .00027725  00000-0  14496-2 0  9992
2 41446  31.0050 277.3411 0007880 145.4765 214.6387 15.14696888 45804
1 41447U 16012R   17025.97147556  .00004195  00000-0  30672-3 0  9999
2 41447  31.0052 294.3103 0008557  98.2413 261.9194 15.01931476 45656
1 41456U 16025A   17026.41819104 -.00000076  00000-0 -63921-5 0  9999
2 41456  98.1819  35.9015 0001293  74.8061 285.3286 14.59198621 40185
1 41457U 16025B   17025.95104181 -.00000048 +00000-0 -75938-6 0  9991
2 41457 098.2348 034.9196 0001383 061.1709 298.9626 14.53937057039950
1 41458U 16025C   17025.89125495 +.00003140 +00000-0 +17310-3 0  9997
2 41458 098.1984 055.2595 0176630 044.9706 316.5672 15.02435903041217
1 41459U 16025D   17025.89961724 +.00002441 +00000-0 +13557-3 0  9993
2 41459 098.1985 055.2477 0177688 044.9764 316.5696 15.02321974041203
1 41460U 16025E   17026.36842126  .00002768  00000-0  15394-3 0  9995
2 41460  98.1926  55.7881 0171256  42.4411 318.9931 15.02956063 41280
1 41461U 16025F   17025.81468749 +.00001875 +00000-0 +10561-3 0  9999
2 41461 098.2218 055.3953 0182115 047.6461 314.0021 15.01646345041229
1 41463U 98067HT  17026.36503994  .00007621  00000-0  10002-3 0  9995
2 41463  51.6434  19.6089 0001427  50.4379  90.9973 15.59621822 42642
1 41464U 16026A   17026.49686664  .00000837  00000-0  31449-4 0  9992
2 41464  97.2606 292.4843 0013182  17.3627 102.4132 15.29861927 41776
1 41465U 16026B   17026.43807081  .00001973  00000-0  69088-4 0  9997
2 41465  97.2604 292.5366 0012811  15.2453  72.2298 15.30592403 41777
1 41466U 16026C   17026.47673321  .00005584  00000-0  17756-3 0  9996
2 41466  97.2602 293.0977 0011710  18.3725 101.3427 15.32944791 41819
1 41469U 16027A   17026.04086218 -.00000331  00000-0  00000+0 0  9992
2 41469   4.5260 269.6320 0002904 358.7360   1.4544  1.00272831  2811
1 41470U 16027B   17026.34854701  .00003545  00000-0  55577-3 0  9999
2 41470  17.8474  60.9263 6065844 217.8823  78.0113  3.95714057 10764
1 41471U 16028A   17026.42806532  .00000000  00000-0  10000-3 0  9994
2 41471   0.0267  84.1682 0002052 248.0309 101.7271  1.00266158  2705
1 41472U 16028B   17026.11628260  .00027768 -55347-6  47582-3 0  9997
2 41472  23.9631  18.1155 6903877  21.2054 357.1578  2.82677519  6659
1 41473U 16029A   17026.41911218  .00000092  00000-0  20901-4 0  9997
2 41473  98.0361  83.8024 0021997 128.2531 232.0661 14.75991809 37804
1 41474U 98067HU  17026.46665136  .00052557  00000-0  34919-3 0  9996
2 41474  51.6442   7.0881 0000675  22.1262 337.9767 15.74915826 39890
1 41475U 98067HV  17003.74787607  .12518598  12537-4  55989-3 0  9998
2 41475  51.6110 110.0165 0004040 312.3134  47.7551 16.43344525 36494
1 41476U 98067HW  17026.39100772  .00055976  00000-0  34403-3 0  9996
2 41476  51.6379   6.4882 0001304  81.1589 278.9558 15.76671886 39802
1 41477U 98067HX  17026.16508919  .00025314  00000-0  22663-3 0  9995
2 41477  51.6366  13.2626 0000434 280.9401  79.1546 15.68173893 39697
1 41478U 98067HY  17026.43312512  .00025375  00000-0  22864-3 0  9998
2 41478  51.6365  12.0508 0000427 289.0601  71.0349 15.68014296 39735
1 41479U 98067HZ  17026.44752987  .00013365  00000-0  14858-3 0  9994
2 41479  51.6416  15.6332 0002961  83.5322  53.0217 15.63233290 39645
1 41480U 98067JA  17026.41451152  .00013875  00000-0  15254-3 0  9990
2 41480  51.6404  15.4578 0002591 114.0964   8.9958 15.63482011 39643
1 41481U 98067JB  17026.36700252  .00014800  00000-0  15894-3 0  9992
2 41481  51.6410  15.0552 0002955  69.4925  85.9024 15.64020259 39623
1 41482U 98067JC  17026.38056852  .00019534  00000-0  20309-3 0  9991
2 41482  51.6398  15.1566 0001494 116.1746  31.9181 15.64611306 39627
1 41483U 98067JD  17026.38707906  .00014015  00000-0  15642-3 0  9998
2 41483  51.6408  15.9817 0001742 156.4458 352.7568 15.63082698 39482
1 41484U 98067JE  17026.41274824  .00015210  00000-0  16372-3 0  9990
2 41484  51.6424  15.4722 0001195 157.9584 324.8044 15.63935153 39492
1 41485U 98067JF  17026.42099313  .00073072  00000-0  37811-3 0  9991
2 41485  51.6373   4.8786 0003980  73.4881  61.8494 15.80389820 39595
1 41486U 98067JG  17026.45800389  .00012578  00000-0  14470-3 0  9998
2 41486  51.6421  16.4800 0000604 250.3832 246.0246 15.62409914 39519
1 41487U 98067JH  17026.45617638  .00013020  00000-0  14513-3 0  9993
2 41487  51.6414  15.7004 0000825 254.9427 241.3886 15.63191682 39525
1 41488U 98067JJ  17026.36696185  .00062910  00000-0  35004-3 0  9998
2 41488  51.6400   6.0104 0003356  67.2020  83.9904 15.78852245 39572
1 41489U 98067JK  17026.13099000  .00083689  00000-0  45968-3 0  9993
2 41489  51.6404   6.8306 0003230  80.3025   1.5635 15.79026658 38793
1 41490U 98067JL  17026.44814723  .00099301  00000-0  45470-3 0  9992
2 41490  51.6380   3.5267 0003294  83.6985  61.5056 15.82911082 39612
